FENGYUN 1C DEB          
1 29857U 99025FB  17345.73810689 -.00000014  00000-0  22792-4 0  9990
2 29857  98.4765 273.6574 0207073 267.4118  90.3316 13.73961941545846
